OBJECT_NAME,OBJECT_ID,EPOCH,MEAN_MOTION,ECCENTRICITY,INCLINATION,RA_OF_ASC_NODE,ARG_OF_PERICENTER,MEAN_ANOMALY,EPHEMERIS_TYPE,CLASSIFICATION_TYPE,NORAD_CAT_ID,ELEMENT_SET_NO,REV_AT_EPOCH,BSTAR,MEAN_MOTION_DOT,MEAN_MOTION_DDOT
SIRION PATHFINDER-2,2018-099B,2026-06-14T09:45:53.701056,15.14527062,.00073974,97.4257,214.5302,316.7693,43.2958,0,U,43759,999,41220,.26191042E-3,.4763E-4,0
CORVUS BC4,2018-099K,2026-06-14T01:53:34.987488,15.12472471,.00086003,97.4066,208.1499,23.1106,337.0510,0,U,43767,999,41193,.27274487E-3,.4685E-4,0
M2 PATHFINDER,2020-037E,2026-06-14T12:28:32.357280,15.04667680,.00123126,97.8150,356.7219,154.2345,205.9496,0,U,45727,999,32509,.14858686E-3,.2028E-4,0
NETSAT-4,2020-068U,2026-06-14T12:46:19.180416,15.43786488,.00042183,97.8597,173.5596,350.1398,9.9765,0,U,46504,999,31536,.36070061E-3,.16243E-3,0
NETSAT-3,2020-068V,2026-06-14T12:52:24.942720,15.42596190,.0004578,97.8646,171.7838,11.5290,348.6060,0,U,46505,999,31527,.3886183E-3,.16823E-3,0
NETSAT-1,2020-068W,2026-06-14T12:39:13.796928,15.34588538,.00053409,97.8738,166.1364,40.3212,319.8424,0,U,46506,999,31489,.34947874E-3,.11634E-3,0
NETSAT-2,2020-068X,2026-06-14T13:49:14.881152,15.45899125,.00037643,97.8610,173.4917,34.8432,325.3061,0,U,46507,999,31533,.41685723E-3,.20196E-3,0
GREENCUBE (IO-117),2022-080E,2026-06-13T07:02:28.697280,6.42583230,.00089108,70.1444,299.5995,290.4576,69.5127,0,U,53109,999,9181,0,-.3E-7,0
SITRO-AIS 5 (KATYS),2023-091L,2026-06-14T14:00:40.627584,15.29404841,.0012777,97.5066,229.4582,111.5122,248.7482,0,U,57176,999,16394,.42389358E-3,.12045E-3,0
SITRO-AIS 6 (CHIRKIN),2023-091AC,2026-06-14T14:56:09.303360,15.25892781,.00131101,97.5074,228.6298,114.3392,245.9217,0,U,57192,999,16389,.37301224E-3,.9512E-4,0
SITRO-AIS 8 (ANOKHIN),2023-091AD,2026-06-14T14:31:44.094144,15.32073906,.00118106,97.5063,231.0581,107.8523,252.4008,0,U,57193,999,16405,.44354832E-3,.13694E-3,0
SITRO-AIS 7 (FARTUSHNIY),2023-091AE,2026-06-14T14:59:56.163840,15.25581383,.00129623,97.5071,228.4588,115.2648,244.9934,0,U,57194,999,16388,.36471557E-3,.9211E-4,0
SITRO-AIS 10 (BURDAEV),2023-091AK,2026-06-14T12:25:27.631488,15.38523162,.00076509,97.5089,235.9956,88.3983,271.8139,0,U,57199,999,16435,.46692686E-3,.17704E-3,0
SITRO-AIS 9 (SHCHUKIN),2023-091AM,2026-06-14T14:35:56.440896,15.38037584,.00079051,97.5087,235.8206,87.9389,272.2761,0,U,57201,999,16435,.4931001E-3,.18411E-3,0
SITRO-AIS 12 (SMIRENNIY),2023-091AQ,2026-06-14T14:23:08.475360,15.38328506,.00074667,97.5099,236.2772,83.0593,277.1500,0,U,57204,999,16437,.5003936E-3,.18861E-3,0
SITRO-AIS 11 (SHEFFER),2023-091AU,2026-06-14T14:43:29.130240,15.38753738,.00073173,97.5097,236.5363,83.3466,276.8612,0,U,57208,999,16439,.48582242E-3,.18563E-3,0
SITRO-AIS 25,2024-039R,2026-06-14T15:06:04.048992,14.93502549,.01437997,95.3912,233.3346,337.7870,21.7164,0,U,59066,999,12434,.17693699E-3,.2247E-4,0
SITRO-AIS 26,2024-039S,2026-06-14T15:07:32.513088,14.93298673,.01441451,95.3913,233.2336,338.3617,21.1555,0,U,59067,999,12433,.17932972E-3,.2267E-4,0
SITRO-AIS 27,2024-039T,2026-06-14T14:25:44.044608,14.93718789,.0143078,95.3917,233.4839,337.0902,22.3981,0,U,59068,999,12435,.24218843E-3,.3101E-4,0
SITRO-AIS 28,2024-039U,2026-06-14T15:29:47.675616,14.93750848,.01430189,95.3914,233.5617,336.7388,22.7405,0,U,59071,999,12436,.21683479E-3,.2774E-4,0
GRBBETA,2024-128C,2026-06-14T11:58:27.666048,15.06624478,.00409774,61.9892,225.6981,134.1230,226.3246,0,U,60237,999,10586,.22869814E-3,.325E-4,0
OOV-CUBE (TUBSAT-30),2024-128F,2026-06-14T12:38:51.437472,15.02764857,.00449619,61.9947,234.8493,133.1128,227.3739,0,U,60240,999,10571,.1619084E-3,.2007E-4,0
ROBUSTA-3A (MEDITERRANEE),2024-128J,2026-06-14T11:44:05.147808,15.11651785,.00416343,61.9855,217.7867,127.6328,232.8557,0,U,60243,999,10601,.35464548E-3,.5962E-4,0
LASARSAT,2024-247Q,2026-06-13T14:48:20.082240,15.46168743,.0008375,44.9751,282.2745,311.5212,48.4959,0,U,62391,999,8276,.65515E-3,.32689E-3,0
CROCUBE,2024-247T,2026-06-14T14:05:15.116928,15.48102542,.00081874,44.9722,274.1999,320.7516,39.2780,0,U,62394,999,8294,.65094055E-3,.34757E-3,0
FORESAIL-1 PRIME,2025-276DS,2026-06-14T03:55:15.060864,15.18676939,.00039127,97.4203,238.4891,109.6955,250.4701,0,U,66778,999,2994,.24279032E-3,.4967E-4,0
KNACKSAT-2,1998-067XZ,2026-06-13T16:46:10.211520,15.59677165,.00096113,51.6303,312.0209,199.6131,160.4494,0,U,67683,999,1973,.57858406E-3,.46958E-3,0
