SIRION PATHFINDER-2     
1 43759U 18099B   26165.40687154  .00004763  00000+0  26191-3 0  9991
2 43759  97.4257 214.5302 0007397 316.7693  43.2958 15.14527062412205
CORVUS BC4              
1 43767U 18099K   26165.07887717  .00004685  00000+0  27274-3 0  9996
2 43767  97.4066 208.1499 0008600  23.1106 337.0510 15.12472471411932
M2 PATHFINDER           
1 45727U 20037E   26165.51981895  .00002028  00000+0  14859-3 0  9994
2 45727  97.8150 356.7219 0012312 154.2345 205.9496 15.04667680325090
NETSAT-4                
1 46504U 20068U   26165.53216644  .00016243  00000+0  36070-3 0  9990
2 46504  97.8597 173.5596 0004218 350.1398   9.9765 15.43786488315364
NETSAT-3                
1 46505U 20068V   26165.53639980  .00016823  00000+0  38862-3 0  9998
2 46505  97.8646 171.7838 0004578  11.5290 348.6060 15.42596190315276
NETSAT-1                
1 46506U 20068W   26165.52724302  .00011634  00000+0  34948-3 0  9997
2 46506  97.8738 166.1364 0005340  40.3212 319.8424 15.34588538314892
NETSAT-2                
1 46507U 20068X   26165.57586668  .00020196  00000+0  41686-3 0  9994
2 46507  97.8610 173.4917 0003764  34.8432 325.3061 15.45899125315335
GREENCUBE (IO-117)      
1 53109U 22080E   26164.29338770 -.00000003  00000+0  00000+0 0  9990
2 53109  70.1444 299.5995 0008910 290.4576  69.5127  6.42583230 91811
SITRO-AIS 5 (KATYS)     
1 57176U 23091L   26165.58380356  .00012045  00000+0  42389-3 0  9999
2 57176  97.5066 229.4582 0012777 111.5122 248.7482 15.29404841163946
SITRO-AIS 6 (CHIRKIN)   
1 57192U 23091AC  26165.62232990  .00009512  00000+0  37301-3 0  9995
2 57192  97.5074 228.6298 0013110 114.3392 245.9217 15.25892781163899
SITRO-AIS 8 (ANOKHIN)   
1 57193U 23091AD  26165.60537146  .00013694  00000+0  44355-3 0  9998
2 57193  97.5063 231.0581 0011810 107.8523 252.4008 15.32073906164057
SITRO-AIS 7 (FARTUSHNIY)
1 57194U 23091AE  26165.62495560  .00009211  00000+0  36472-3 0  9995
2 57194  97.5071 228.4588 0012962 115.2648 244.9934 15.25581383163883
SITRO-AIS 10 (BURDAEV)  
1 57199U 23091AK  26165.51768092  .00017704  00000+0  46693-3 0  9993
2 57199  97.5089 235.9956 0007650  88.3983 271.8139 15.38523162164353
SITRO-AIS 9 (SHCHUKIN)  
1 57201U 23091AM  26165.60829214  .00018411  00000+0  49310-3 0  9996
2 57201  97.5087 235.8206 0007905  87.9389 272.2761 15.38037584164354
SITRO-AIS 12 (SMIRENNIY)
1 57204U 23091AQ  26165.59940365  .00018861  00000+0  50039-3 0  9997
2 57204  97.5099 236.2772 0007466  83.0593 277.1500 15.38328506164373
SITRO-AIS 11 (SHEFFER)  
1 57208U 23091AU  26165.61353160  .00018563  00000+0  48582-3 0  9994
2 57208  97.5097 236.5363 0007317  83.3466 276.8612 15.38753738164392
SITRO-AIS 25            
1 59066U 24039R   26165.62921353  .00002247  00000+0  17694-3 0  9999
2 59066  95.3912 233.3346 0143799 337.7870  21.7164 14.93502549124346
SITRO-AIS 26            
1 59067U 24039S   26165.63023742  .00002267  00000+0  17933-3 0  9994
2 59067  95.3913 233.2336 0144145 338.3617  21.1555 14.93298673124335
SITRO-AIS 27            
1 59068U 24039T   26165.60120422  .00003101  00000+0  24219-3 0  9998
2 59068  95.3917 233.4839 0143078 337.0902  22.3981 14.93718789124350
SITRO-AIS 28            
1 59071U 24039U   26165.64569069  .00002774  00000+0  21683-3 0  9997
2 59071  95.3914 233.5617 0143018 336.7388  22.7405 14.93750848124362
GRBBETA                 
1 60237U 24128C   26165.49893132  .00003250  00000+0  22870-3 0  9995
2 60237  61.9892 225.6981 0040977 134.1230 226.3246 15.06624478105867
OOV-CUBE (TUBSAT-30)    
1 60240U 24128F   26165.52698423  .00002007  00000+0  16191-3 0  9997
2 60240  61.9947 234.8493 0044961 133.1128 227.3739 15.02764857105718
ROBUSTA-3A (MEDITERRAN*)
1 60243U 24128J   26165.48894847  .00005962  00000+0  35465-3 0  9991
2 60243  61.9855 217.7867 0041634 127.6328 232.8557 15.11651785106016
LASARSAT                
1 62391U 24247Q   26164.61689910  .00032689  00000+0  65515-3 0  9991
2 62391  44.9751 282.2745 0008375 311.5212  48.4959 15.46168743 82768
CROCUBE                 
1 62394U 24247T   26165.58698052  .00034757  00000+0  65094-3 0  9998
2 62394  44.9722 274.1999 0008187 320.7516  39.2780 15.48102542 82947
FORESAIL-1 PRIME        
1 66778U 25276DS  26165.16336876  .00004967  00000+0  24279-3 0  9998
2 66778  97.4203 238.4891 0003912 109.6955 250.4701 15.18676939 29944
KNACKSAT-2              
1 67683U 98067XZ  26164.69872930  .00046958  00000+0  57858-3 0  9990
2 67683  51.6303 312.0209 0009611 199.6131 160.4494 15.59677165 19734
